[{"OBJECT_NAME":"STARLINK-34548","OBJECT_ID":"2025-142W","EPOCH":"2026-03-09T21:20:20.957280","MEAN_MOTION":14.99752914,"ECCENTRICITY":0.00111598,"INCLINATION":70.0032,"RA_OF_ASC_NODE":313.8354,"ARG_OF_PERICENTER":256.7432,"MEAN_ANOMALY":103.2483,"EPHEMERIS_TYPE":0,"CLASSIFICATION_TYPE":"U","NORAD_CAT_ID":64716,"ELEMENT_SET_NO":999,"REV_AT_EPOCH":3949,"BSTAR":0.071342808,"MEAN_MOTION_DOT":0.00948623,"MEAN_MOTION_DDOT":0},{"OBJECT_NAME":"PEGASUS DEB","OBJECT_ID":"1994-029LN","EPOCH":"2026-03-09T13:32:28.639104","MEAN_MOTION":14.7969053,"ECCENTRICITY":0.014325,"INCLINATION":81.5077,"RA_OF_ASC_NODE":265.5669,"ARG_OF_PERICENTER":165.8227,"MEAN_ANOMALY":194.7072,"EPHEMERIS_TYPE":0,"CLASSIFICATION_TYPE":"U","NORAD_CAT_ID":24239,"ELEMENT_SET_NO":999,"REV_AT_EPOCH":56152,"BSTAR":0.0015079,"MEAN_MOTION_DOT":0.00013522,"MEAN_MOTION_DDOT":0}]
